[{"OBJECT_NAME":"STARLINK-31078","OBJECT_ID":"2023-203W","EPOCH":"2026-01-01T13:36:58.180320","MEAN_MOTION":15.27582266,"ECCENTRICITY":0.00013652,"INCLINATION":42.999,"RA_OF_ASC_NODE":86.3586,"ARG_OF_PERICENTER":256.1239,"MEAN_ANOMALY":103.9461,"EPHEMERIS_TYPE":0,"CLASSIFICATION_TYPE":"U","NORAD_CAT_ID":58638,"ELEMENT_SET_NO":999,"REV_AT_EPOCH":11329,"BSTAR":0.00048797011,"MEAN_MOTION_DOT":0.00013191,"MEAN_MOTION_DDOT":0},{"OBJECT_NAME":"STARLINK-31070","OBJECT_ID":"2023-203X","EPOCH":"2026-01-01T12:23:10.735872","MEAN_MOTION":15.27568811,"ECCENTRICITY":2.772e-5,"INCLINATION":42.9972,"RA_OF_ASC_NODE":86.8324,"ARG_OF_PERICENTER":193.7644,"MEAN_ANOMALY":166.32,"EPHEMERIS_TYPE":0,"CLASSIFICATION_TYPE":"U","NORAD_CAT_ID":58639,"ELEMENT_SET_NO":999,"REV_AT_EPOCH":11328,"BSTAR":9.83717e-7,"MEAN_MOTION_DOT":-2.34e-6,"MEAN_MOTION_DDOT":0},{"OBJECT_NAME":"STARLINK-31090","OBJECT_ID":"2023-203Y","EPOCH":"2026-01-01T05:34:25.687200","MEAN_MOTION":15.27569474,"ECCENTRICITY":1.926e-5,"INCLINATION":42.9977,"RA_OF_ASC_NODE":80.3616,"ARG_OF_PERICENTER":207.2201,"MEAN_ANOMALY":152.8641,"EPHEMERIS_TYPE":0,"CLASSIFICATION_TYPE":"U","NORAD_CAT_ID":58640,"ELEMENT_SET_NO":999,"REV_AT_EPOCH":11334,"BSTAR":4.1194137e-5,"MEAN_MOTION_DOT":8.72e-6,"MEAN_MOTION_DDOT":0},{"OBJECT_NAME":"STARLINK-31113","OBJECT_ID":"2023-211B","EPOCH":"2026-01-01T07:29:52.881504","MEAN_MOTION":15.27577431,"ECCENTRICITY":4.043e-5,"INCLINATION":42.9952,"RA_OF_ASC_NODE":105.4892,"ARG_OF_PERICENTER":195.7339,"MEAN_ANOMALY":164.35,"EPHEMERIS_TYPE":0,"CLASSIFICATION_TYPE":"U","NORAD_CAT_ID":58668,"ELEMENT_SET_NO":999,"REV_AT_EPOCH":11216,"BSTAR":4.6375418e-5,"MEAN_MOTION_DOT":1.015e-5,"MEAN_MOTION_DDOT":0},{"OBJECT_NAME":"STARLINK-31128","OBJECT_ID":"2023-211C","EPOCH":"2026-01-01T07:53:56.126112","MEAN_MOTION":15.27577423,"ECCENTRICITY":9.943e-5,"INCLINATION":43.0035,"RA_OF_ASC_NODE":105.6145,"ARG_OF_PERICENTER":273.0649,"MEAN_ANOMALY":87.0089,"EPHEMERIS_TYPE":0,"CLASSIFICATION_TYPE":"U","NORAD_CAT_ID":58669,"ELEMENT_SET_NO":999,"REV_AT_EPOCH":11216,"BSTAR":1.2428466e-5,"MEAN_MOTION_DOT":8.0e-7,"MEAN_MOTION_DDOT":0},{"OBJECT_NAME":"STARLINK-31083","OBJECT_ID":"2023-211D","EPOCH":"2026-01-01T07:24:20.502432","MEAN_MOTION":15.27572442,"ECCENTRICITY":3.831e-5,"INCLINATION":42.9967,"RA_OF_ASC_NODE":105.46,"ARG_OF_PERICENTER":312.0672,"MEAN_ANOMALY":48.0147,"EPHEMERIS_TYPE":0,"CLASSIFICATION_TYPE":"U","NORAD_CAT_ID":58670,"ELEMENT_SET_NO":999,"REV_AT_EPOCH":11216,"BSTAR":1.0918872e-5,"MEAN_MOTION_DOT":3.9e-7,"MEAN_MOTION_DDOT":0},{"OBJECT_NAME":"STARLINK-30828","OBJECT_ID":"2023-211E","EPOCH":"2026-01-01T08:08:44.451168","MEAN_MOTION":15.2758104,"ECCENTRICITY":8.992e-5,"INCLINATION":43.0015,"RA_OF_ASC_NODE":105.6867,"ARG_OF_PERICENTER":263.1241,"MEAN_ANOMALY":96.9509,"EPHEMERIS_TYPE":0,"CLASSIFICATION_TYPE":"U","NORAD_CAT_ID":58671,"ELEMENT_SET_NO":999,"REV_AT_EPOCH":11216,"BSTAR":1.7794455e-5,"MEAN_MOTION_DOT":2.28e-6,"MEAN_MOTION_DDOT":0},{"OBJECT_NAME":"STARLINK-31104","OBJECT_ID":"2023-211F","EPOCH":"2026-01-01T07:07:24.440160","MEAN_MOTION":15.28677362,"ECCENTRICITY":0.00018738,"INCLINATION":42.9986,"RA_OF_ASC_NODE":105.373,"ARG_OF_PERICENTER":306.1522,"MEAN_ANOMALY":53.9156,"EPHEMERIS_TYPE":0,"CLASSIFICATION_TYPE":"U","NORAD_CAT_ID":58672,"ELEMENT_SET_NO":999,"REV_AT_EPOCH":11344,"BSTAR":0.0017196844,"MEAN_MOTION_DOT":0.00048999,"MEAN_MOTION_DDOT":0},{"OBJECT_NAME":"STARLINK-31131","OBJECT_ID":"2023-211G","EPOCH":"2026-01-01T07:31:56.818848","MEAN_MOTION":15.27573838,"ECCENTRICITY":0.00010525,"INCLINATION":43.0013,"RA_OF_ASC_NODE":94.9762,"ARG_OF_PERICENTER":196.9302,"MEAN_ANOMALY":163.1515,"EPHEMERIS_TYPE":0,"CLASSIFICATION_TYPE":"U","NORAD_CAT_ID":58673,"ELEMENT_SET_NO":999,"REV_AT_EPOCH":11356,"BSTAR":3.882732e-5,"MEAN_MOTION_DOT":8.06e-6,"MEAN_MOTION_DDOT":0},{"OBJECT_NAME":"STARLINK-31124","OBJECT_ID":"2023-211H","EPOCH":"2026-01-01T15:26:13.501248","MEAN_MOTION":15.27567005,"ECCENTRICITY":0.00014888,"INCLINATION":43.0005,"RA_OF_ASC_NODE":103.6742,"ARG_OF_PERICENTER":275.8329,"MEAN_ANOMALY":84.2353,"EPHEMERIS_TYPE":0,"CLASSIFICATION_TYPE":"U","NORAD_CAT_ID":58674,"ELEMENT_SET_NO":999,"REV_AT_EPOCH":11221,"BSTAR":0.00054730233,"MEAN_MOTION_DOT":0.00014823,"MEAN_MOTION_DDOT":0},{"OBJECT_NAME":"STARLINK-31126","OBJECT_ID":"2023-211J","EPOCH":"2026-01-01T16:00:00.999936","MEAN_MOTION":15.27529486,"ECCENTRICITY":0.00017674,"INCLINATION":43.0005,"RA_OF_ASC_NODE":103.3297,"ARG_OF_PERICENTER":272.6098,"MEAN_ANOMALY":301.5942,"EPHEMERIS_TYPE":0,"CLASSIFICATION_TYPE":"U","NORAD_CAT_ID":58675,"ELEMENT_SET_NO":999,"REV_AT_EPOCH":587,"BSTAR":0.0027920265,"MEAN_MOTION_DOT":0.00077258,"MEAN_MOTION_DDOT":0},{"OBJECT_NAME":"STARLINK-31066","OBJECT_ID":"2023-211K","EPOCH":"2025-12-31T23:38:16.789056","MEAN_MOTION":15.02535213,"ECCENTRICITY":0.00012128,"INCLINATION":43.0037,"RA_OF_ASC_NODE":242.5741,"ARG_OF_PERICENTER":262.6888,"MEAN_ANOMALY":97.3817,"EPHEMERIS_TYPE":0,"CLASSIFICATION_TYPE":"U","NORAD_CAT_ID":58676,"ELEMENT_SET_NO":999,"REV_AT_EPOCH":11180,"BSTAR":0.0001103511,"MEAN_MOTION_DOT":1.287e-5,"MEAN_MOTION_DDOT":0},{"OBJECT_NAME":"STARLINK-31058","OBJECT_ID":"2023-211L","EPOCH":"2026-01-01T07:39:08.525088","MEAN_MOTION":15.27567191,"ECCENTRICITY":6.79e-6,"INCLINATION":42.9964,"RA_OF_ASC_NODE":105.5399,"ARG_OF_PERICENTER":85.257,"MEAN_ANOMALY":274.8289,"EPHEMERIS_TYPE":0,"CLASSIFICATION_TYPE":"U","NORAD_CAT_ID":58677,"ELEMENT_SET_NO":999,"REV_AT_EPOCH":11216,"BSTAR":0.00010656378,"MEAN_MOTION_DOT":2.671e-5,"MEAN_MOTION_DDOT":0},{"OBJECT_NAME":"STARLINK-31125","OBJECT_ID":"2023-211M","EPOCH":"2026-01-01T08:12:26.363520","MEAN_MOTION":15.27577549,"ECCENTRICITY":9.025e-5,"INCLINATION":42.9996,"RA_OF_ASC_NODE":105.703,"ARG_OF_PERICENTER":263.4004,"MEAN_ANOMALY":96.6745,"EPHEMERIS_TYPE":0,"CLASSIFICATION_TYPE":"U","NORAD_CAT_ID":58678,"ELEMENT_SET_NO":999,"REV_AT_EPOCH":11333,"BSTAR":-3.4548631e-5,"MEAN_MOTION_DOT":-1.212e-5,"MEAN_MOTION_DDOT":0},{"OBJECT_NAME":"STARLINK-31110","OBJECT_ID":"2023-211N","EPOCH":"2026-01-01T14:01:18.608160","MEAN_MOTION":15.27582892,"ECCENTRICITY":8.557e-5,"INCLINATION":43.0009,"RA_OF_ASC_NODE":104.092,"ARG_OF_PERICENTER":257.4686,"MEAN_ANOMALY":102.607,"EPHEMERIS_TYPE":0,"CLASSIFICATION_TYPE":"U","NORAD_CAT_ID":58679,"ELEMENT_SET_NO":999,"REV_AT_EPOCH":11220,"BSTAR":0.00012363861,"MEAN_MOTION_DOT":3.142e-5,"MEAN_MOTION_DDOT":0},{"OBJECT_NAME":"STARLINK-31112","OBJECT_ID":"2023-211P","EPOCH":"2026-01-01T07:55:47.791200","MEAN_MOTION":15.27571023,"ECCENTRICITY":8.628e-5,"INCLINATION":43.0019,"RA_OF_ASC_NODE":105.6248,"ARG_OF_PERICENTER":267.1976,"MEAN_ANOMALY":92.8777,"EPHEMERIS_TYPE":0,"CLASSIFICATION_TYPE":"U","NORAD_CAT_ID":58680,"ELEMENT_SET_NO":999,"REV_AT_EPOCH":11334,"BSTAR":-5.531635e-6,"MEAN_MOTION_DOT":-4.14e-6,"MEAN_MOTION_DDOT":0}]
