STARLINK-31078          
1 58638U 23203W   26001.56734005  .00013191  00000+0  48797-3 0  9991
2 58638  42.9990  86.3586 0001365 256.1239 103.9461 15.27582266113298
STARLINK-31070          
1 58639U 23203X   26001.51609648 -.00000234  00000+0  98372-6 0  9993
2 58639  42.9972  86.8324 0000277 193.7644 166.3200 15.27568811113284
STARLINK-31090          
1 58640U 23203Y   26001.23224175  .00000872  00000+0  41194-4 0  9997
2 58640  42.9977  80.3616 0000192 207.2201 152.8641 15.27569474113342
STARLINK-31113          
1 58668U 23211B   26001.31241761  .00001015  00000+0  46375-4 0  9991
2 58668  42.9952 105.4892 0000404 195.7339 164.3500 15.27577431112162
STARLINK-31128          
1 58669U 23211C   26001.32912183  .00000080  00000+0  12428-4 0  9999
2 58669  43.0035 105.6145 0000994 273.0649  87.0089 15.27577423112162
STARLINK-31083          
1 58670U 23211D   26001.30857063  .00000039  00000+0  10919-4 0  9991
2 58670  42.9967 105.4600 0000383 312.0672  48.0147 15.27572442112160
STARLINK-30828          
1 58671U 23211E   26001.33940337  .00000228  00000+0  17794-4 0  9990
2 58671  43.0015 105.6867 0000899 263.1241  96.9509 15.27581040112162
STARLINK-31104          
1 58672U 23211F   26001.29681065  .00048999  00000+0  17197-2 0  9998
2 58672  42.9986 105.3730 0001873 306.1522  53.9156 15.28677362113444
STARLINK-31131          
1 58673U 23211G   26001.31385207  .00000806  00000+0  38827-4 0  9991
2 58673  43.0013  94.9762 0001052 196.9302 163.1515 15.27573838113564
STARLINK-31124          
1 58674U 23211H   26001.64321182  .00014823  00000+0  54730-3 0  9994
2 58674  43.0005 103.6742 0001488 275.8329  84.2353 15.27567005112214
STARLINK-31126          
1 58675U 23211J   26001.66667824  .00077258  00000+0  27920-2 0  9994
2 58675  43.0005 103.3297 0001767 272.6098 301.5942 15.27529486  5878
STARLINK-31066          
1 58676U 23211K   25365.98491654  .00001287  00000+0  11035-3 0  9998
2 58676  43.0037 242.5741 0001212 262.6888  97.3817 15.02535213111805
STARLINK-31058          
1 58677U 23211L   26001.31884867  .00002671  00000+0  10656-3 0  9992
2 58677  42.9964 105.5399 0000067  85.2570 274.8289 15.27567191112166
STARLINK-31125          
1 58678U 23211M   26001.34197180 -.00001212  00000+0 -34549-4 0  9991
2 58678  42.9996 105.7030 0000902 263.4004  96.6745 15.27577549113331
STARLINK-31110          
1 58679U 23211N   26001.58424315  .00003142  00000+0  12364-3 0  9993
2 58679  43.0009 104.0920 0000855 257.4686 102.6070 15.27582892112206
STARLINK-31112          
1 58680U 23211P   26001.33041425 -.00000414  00000+0 -55316-5 0  9992
2 58680  43.0019 105.6248 0000862 267.1976  92.8777 15.27571023113341
